[{"OBJECT_NAME":"STARLINK-30845","OBJECT_ID":"2023-170B","EPOCH":"2026-03-05T12:12:32.955264","MEAN_MOTION":15.0302733,"ECCENTRICITY":0.0001385,"INCLINATION":43.0023,"RA_OF_ASC_NODE":218.3851,"ARG_OF_PERICENTER":322.4611,"MEAN_ANOMALY":37.6134,"EPHEMERIS_TYPE":0,"CLASSIFICATION_TYPE":"U","NORAD_CAT_ID":58207,"ELEMENT_SET_NO":999,"REV_AT_EPOCH":12965,"BSTAR":0.00025524,"MEAN_MOTION_DOT":3.29e-5,"MEAN_MOTION_DDOT":0},{"OBJECT_NAME":"STARLINK-30841","OBJECT_ID":"2023-170C","EPOCH":"2026-03-05T22:00:01.999584","MEAN_MOTION":15.24872578,"ECCENTRICITY":0.00021862,"INCLINATION":42.9999,"RA_OF_ASC_NODE":215.6009,"ARG_OF_PERICENTER":299.1572,"MEAN_ANOMALY":342.1914,"EPHEMERIS_TYPE":0,"CLASSIFICATION_TYPE":"U","NORAD_CAT_ID":58208,"ELEMENT_SET_NO":999,"REV_AT_EPOCH":568,"BSTAR":0.065808912,"MEAN_MOTION_DOT":0.01834538,"MEAN_MOTION_DDOT":0},{"OBJECT_NAME":"STARLINK-30839","OBJECT_ID":"2023-170D","EPOCH":"2026-03-05T22:00:01.999584","MEAN_MOTION":15.2670743,"ECCENTRICITY":0.00017048,"INCLINATION":43.0011,"RA_OF_ASC_NODE":214.8776,"ARG_OF_PERICENTER":279.9807,"MEAN_ANOMALY":313.1302,"EPHEMERIS_TYPE":0,"CLASSIFICATION_TYPE":"U","NORAD_CAT_ID":58209,"ELEMENT_SET_NO":999,"REV_AT_EPOCH":577,"BSTAR":0.0023097383,"MEAN_MOTION_DOT":0.00062159,"MEAN_MOTION_DDOT":0},{"OBJECT_NAME":"STARLINK-30846","OBJECT_ID":"2023-170E","EPOCH":"2026-03-05T22:00:01.999584","MEAN_MOTION":15.2103854,"ECCENTRICITY":0.0001781,"INCLINATION":43.0009,"RA_OF_ASC_NODE":215.8923,"ARG_OF_PERICENTER":243.7055,"MEAN_ANOMALY":279.0419,"EPHEMERIS_TYPE":0,"CLASSIFICATION_TYPE":"U","NORAD_CAT_ID":58210,"ELEMENT_SET_NO":999,"REV_AT_EPOCH":578,"BSTAR":0.088524364,"MEAN_MOTION_DOT":0.0220938,"MEAN_MOTION_DDOT":0},{"OBJECT_NAME":"STARLINK-30838","OBJECT_ID":"2023-170F","EPOCH":"2026-03-05T22:00:01.999584","MEAN_MOTION":15.23652493,"ECCENTRICITY":0.00011494,"INCLINATION":43.0022,"RA_OF_ASC_NODE":215.3012,"ARG_OF_PERICENTER":284.9712,"MEAN_ANOMALY":130.3645,"EPHEMERIS_TYPE":0,"CLASSIFICATION_TYPE":"U","NORAD_CAT_ID":58211,"ELEMENT_SET_NO":999,"REV_AT_EPOCH":577,"BSTAR":0.034422052,"MEAN_MOTION_DOT":0.00908372,"MEAN_MOTION_DDOT":0},{"OBJECT_NAME":"STARLINK-30837","OBJECT_ID":"2023-170G","EPOCH":"2026-03-05T22:00:01.999584","MEAN_MOTION":15.22436082,"ECCENTRICITY":0.00015986,"INCLINATION":43,"RA_OF_ASC_NODE":215.7532,"ARG_OF_PERICENTER":285.5561,"MEAN_ANOMALY":288.4922,"EPHEMERIS_TYPE":0,"CLASSIFICATION_TYPE":"U","NORAD_CAT_ID":58212,"ELEMENT_SET_NO":999,"REV_AT_EPOCH":572,"BSTAR":0.071843644,"MEAN_MOTION_DOT":0.01866802,"MEAN_MOTION_DDOT":0},{"OBJECT_NAME":"STARLINK-30813","OBJECT_ID":"2023-170H","EPOCH":"2026-03-05T22:00:01.999584","MEAN_MOTION":15.26713271,"ECCENTRICITY":0.00013736,"INCLINATION":43,"RA_OF_ASC_NODE":215.1707,"ARG_OF_PERICENTER":287.3213,"MEAN_ANOMALY":182.2832,"EPHEMERIS_TYPE":0,"CLASSIFICATION_TYPE":"U","NORAD_CAT_ID":58213,"ELEMENT_SET_NO":999,"REV_AT_EPOCH":577,"BSTAR":0.0021227317,"MEAN_MOTION_DOT":0.00057075,"MEAN_MOTION_DDOT":0},{"OBJECT_NAME":"STARLINK-30805","OBJECT_ID":"2023-170J","EPOCH":"2026-03-05T22:00:01.999584","MEAN_MOTION":15.23387968,"ECCENTRICITY":0.00015268,"INCLINATION":43.0029,"RA_OF_ASC_NODE":215.1848,"ARG_OF_PERICENTER":283.7508,"MEAN_ANOMALY":179.7878,"EPHEMERIS_TYPE":0,"CLASSIFICATION_TYPE":"U","NORAD_CAT_ID":58214,"ELEMENT_SET_NO":999,"REV_AT_EPOCH":577,"BSTAR":0.032860252,"MEAN_MOTION_DOT":0.00856538,"MEAN_MOTION_DDOT":0},{"OBJECT_NAME":"STARLINK-30851","OBJECT_ID":"2023-170K","EPOCH":"2026-03-05T22:00:01.999584","MEAN_MOTION":15.26656467,"ECCENTRICITY":9.544e-5,"INCLINATION":43.0003,"RA_OF_ASC_NODE":215.2906,"ARG_OF_PERICENTER":263.7325,"MEAN_ANOMALY":153.422,"EPHEMERIS_TYPE":0,"CLASSIFICATION_TYPE":"U","NORAD_CAT_ID":58215,"ELEMENT_SET_NO":999,"REV_AT_EPOCH":567,"BSTAR":0.0040954204,"MEAN_MOTION_DOT":0.00110979,"MEAN_MOTION_DDOT":0},{"OBJECT_NAME":"STARLINK-30818","OBJECT_ID":"2023-170M","EPOCH":"2026-03-05T22:00:01.999584","MEAN_MOTION":15.25832071,"ECCENTRICITY":3.58e-5,"INCLINATION":43.0009,"RA_OF_ASC_NODE":215.0872,"ARG_OF_PERICENTER":336.1695,"MEAN_ANOMALY":167.0357,"EPHEMERIS_TYPE":0,"CLASSIFICATION_TYPE":"U","NORAD_CAT_ID":58217,"ELEMENT_SET_NO":999,"REV_AT_EPOCH":573,"BSTAR":0.046027353,"MEAN_MOTION_DOT":0.01320236,"MEAN_MOTION_DDOT":0},{"OBJECT_NAME":"STARLINK-30794","OBJECT_ID":"2023-170N","EPOCH":"2026-03-05T22:00:01.999584","MEAN_MOTION":15.26733069,"ECCENTRICITY":0.00016092,"INCLINATION":43.0012,"RA_OF_ASC_NODE":214.904,"ARG_OF_PERICENTER":287.7913,"MEAN_ANOMALY":286.9316,"EPHEMERIS_TYPE":0,"CLASSIFICATION_TYPE":"U","NORAD_CAT_ID":58218,"ELEMENT_SET_NO":999,"REV_AT_EPOCH":567,"BSTAR":0.0029286599,"MEAN_MOTION_DOT":0.00079128,"MEAN_MOTION_DDOT":0},{"OBJECT_NAME":"STARLINK-30835","OBJECT_ID":"2023-170P","EPOCH":"2026-03-05T22:00:01.999584","MEAN_MOTION":15.24634365,"ECCENTRICITY":0.00012566,"INCLINATION":43.002,"RA_OF_ASC_NODE":215.2374,"ARG_OF_PERICENTER":282.7145,"MEAN_ANOMALY":157.1822,"EPHEMERIS_TYPE":0,"CLASSIFICATION_TYPE":"U","NORAD_CAT_ID":58219,"ELEMENT_SET_NO":999,"REV_AT_EPOCH":578,"BSTAR":0.045388794,"MEAN_MOTION_DOT":0.01249569,"MEAN_MOTION_DDOT":0},{"OBJECT_NAME":"STARLINK-30792","OBJECT_ID":"2023-170Q","EPOCH":"2026-03-05T18:33:45.615168","MEAN_MOTION":15.034926,"ECCENTRICITY":0.00015169,"INCLINATION":42.998,"RA_OF_ASC_NODE":216.9124,"ARG_OF_PERICENTER":287.202,"MEAN_ANOMALY":72.8656,"EPHEMERIS_TYPE":0,"CLASSIFICATION_TYPE":"U","NORAD_CAT_ID":58220,"ELEMENT_SET_NO":999,"REV_AT_EPOCH":12969,"BSTAR":0.00080669021,"MEAN_MOTION_DOT":0.0001099,"MEAN_MOTION_DDOT":0},{"OBJECT_NAME":"STARLINK-30836","OBJECT_ID":"2023-170R","EPOCH":"2026-03-05T22:00:01.999584","MEAN_MOTION":15.20405846,"ECCENTRICITY":0.00015069,"INCLINATION":42.9999,"RA_OF_ASC_NODE":215.2213,"ARG_OF_PERICENTER":321.1308,"MEAN_ANOMALY":122.9799,"EPHEMERIS_TYPE":0,"CLASSIFICATION_TYPE":"U","NORAD_CAT_ID":58221,"ELEMENT_SET_NO":999,"REV_AT_EPOCH":578,"BSTAR":0.054286536,"MEAN_MOTION_DOT":0.01306384,"MEAN_MOTION_DDOT":0},{"OBJECT_NAME":"STARLINK-30855","OBJECT_ID":"2023-170S","EPOCH":"2026-03-05T22:00:01.999584","MEAN_MOTION":15.23892968,"ECCENTRICITY":0.00016544,"INCLINATION":43.0004,"RA_OF_ASC_NODE":215.7572,"ARG_OF_PERICENTER":265.0565,"MEAN_ANOMALY":306.8022,"EPHEMERIS_TYPE":0,"CLASSIFICATION_TYPE":"U","NORAD_CAT_ID":58222,"ELEMENT_SET_NO":999,"REV_AT_EPOCH":572,"BSTAR":0.072455521,"MEAN_MOTION_DOT":0.01976731,"MEAN_MOTION_DDOT":0},{"OBJECT_NAME":"STARLINK-30840","OBJECT_ID":"2023-170T","EPOCH":"2026-03-05T22:00:01.999584","MEAN_MOTION":15.26612394,"ECCENTRICITY":0.00013412,"INCLINATION":42.9997,"RA_OF_ASC_NODE":215.6393,"ARG_OF_PERICENTER":299.6904,"MEAN_ANOMALY":322.3468,"EPHEMERIS_TYPE":0,"CLASSIFICATION_TYPE":"U","NORAD_CAT_ID":58223,"ELEMENT_SET_NO":999,"REV_AT_EPOCH":578,"BSTAR":0.004709298,"MEAN_MOTION_DOT":0.00127775,"MEAN_MOTION_DDOT":0},{"OBJECT_NAME":"STARLINK-30875","OBJECT_ID":"2023-170U","EPOCH":"2026-03-05T22:00:01.999584","MEAN_MOTION":15.26588446,"ECCENTRICITY":0.0001184,"INCLINATION":43.0017,"RA_OF_ASC_NODE":215.2587,"ARG_OF_PERICENTER":285.7307,"MEAN_ANOMALY":139.0878,"EPHEMERIS_TYPE":0,"CLASSIFICATION_TYPE":"U","NORAD_CAT_ID":58224,"ELEMENT_SET_NO":999,"REV_AT_EPOCH":572,"BSTAR":0.0074681148,"MEAN_MOTION_DOT":0.00204778,"MEAN_MOTION_DDOT":0},{"OBJECT_NAME":"STARLINK-30872","OBJECT_ID":"2023-170V","EPOCH":"2026-03-05T23:56:46.227264","MEAN_MOTION":15.27595899,"ECCENTRICITY":0.00019565,"INCLINATION":43.007,"RA_OF_ASC_NODE":73.1569,"ARG_OF_PERICENTER":274.7874,"MEAN_ANOMALY":85.2755,"EPHEMERIS_TYPE":0,"CLASSIFICATION_TYPE":"U","NORAD_CAT_ID":58225,"ELEMENT_SET_NO":999,"REV_AT_EPOCH":13140,"BSTAR":-3.3283754e-5,"MEAN_MOTION_DOT":-1.179e-5,"MEAN_MOTION_DDOT":0},{"OBJECT_NAME":"STARLINK-30865","OBJECT_ID":"2023-170W","EPOCH":"2026-03-05T22:00:01.999584","MEAN_MOTION":15.26713641,"ECCENTRICITY":0.00011768,"INCLINATION":43.0023,"RA_OF_ASC_NODE":204.0992,"ARG_OF_PERICENTER":293.1724,"MEAN_ANOMALY":185.2865,"EPHEMERIS_TYPE":0,"CLASSIFICATION_TYPE":"U","NORAD_CAT_ID":58226,"ELEMENT_SET_NO":999,"REV_AT_EPOCH":552,"BSTAR":0.0020963669,"MEAN_MOTION_DOT":0.00056358,"MEAN_MOTION_DDOT":0},{"OBJECT_NAME":"STARLINK-30874","OBJECT_ID":"2023-170X","EPOCH":"2026-03-05T22:00:01.999584","MEAN_MOTION":15.26711343,"ECCENTRICITY":0.00010483,"INCLINATION":42.9997,"RA_OF_ASC_NODE":215.3328,"ARG_OF_PERICENTER":275.7369,"MEAN_ANOMALY":119.8448,"EPHEMERIS_TYPE":0,"CLASSIFICATION_TYPE":"U","NORAD_CAT_ID":58227,"ELEMENT_SET_NO":999,"REV_AT_EPOCH":578,"BSTAR":0.0022982253,"MEAN_MOTION_DOT":0.00061852,"MEAN_MOTION_DDOT":0},{"OBJECT_NAME":"STARLINK-30871","OBJECT_ID":"2023-170Y","EPOCH":"2026-03-05T22:00:01.999584","MEAN_MOTION":15.27447467,"ECCENTRICITY":0.0001774,"INCLINATION":42.9998,"RA_OF_ASC_NODE":215.7037,"ARG_OF_PERICENTER":293.7121,"MEAN_ANOMALY":302.9706,"EPHEMERIS_TYPE":0,"CLASSIFICATION_TYPE":"U","NORAD_CAT_ID":58228,"ELEMENT_SET_NO":999,"REV_AT_EPOCH":578,"BSTAR":0.0042125385,"MEAN_MOTION_DOT":0.00117038,"MEAN_MOTION_DDOT":0},{"OBJECT_NAME":"STARLINK-30861","OBJECT_ID":"2023-171A","EPOCH":"2026-03-05T22:00:01.999584","MEAN_MOTION":15.19259631,"ECCENTRICITY":0.0002007,"INCLINATION":42.999,"RA_OF_ASC_NODE":306.0232,"ARG_OF_PERICENTER":276.8317,"MEAN_ANOMALY":82.8294,"EPHEMERIS_TYPE":0,"CLASSIFICATION_TYPE":"U","NORAD_CAT_ID":58230,"ELEMENT_SET_NO":999,"REV_AT_EPOCH":573,"BSTAR":0.098277964,"MEAN_MOTION_DOT":0.02343687,"MEAN_MOTION_DDOT":0},{"OBJECT_NAME":"STARLINK-30867","OBJECT_ID":"2023-171B","EPOCH":"2026-03-05T22:00:01.999584","MEAN_MOTION":15.19716835,"ECCENTRICITY":0.00018649,"INCLINATION":42.9989,"RA_OF_ASC_NODE":306.0544,"ARG_OF_PERICENTER":298.0657,"MEAN_ANOMALY":45.1959,"EPHEMERIS_TYPE":0,"CLASSIFICATION_TYPE":"U","NORAD_CAT_ID":58231,"ELEMENT_SET_NO":999,"REV_AT_EPOCH":578,"BSTAR":0.09558134,"MEAN_MOTION_DOT":0.0230574,"MEAN_MOTION_DDOT":0}]
